<?xml version="1.0" encoding="UTF-8"?><gpx version="1.1" creator="Arbor3D SIMULATED" xmlns="http://www.topografix.com/GPX/1/1"><metadata><name>SIMULATED 上德公園</name><desc>合成示範軌跡，非現場 GPS；不可作為導航或現勘證據。</desc></metadata><trk><name>SIMULATED</name><trkseg><trkpt lat="24.169208" lon="120.644532"/><trkpt lat="24.1693353" lon="120.6444676"/><trkpt lat="24.169388" lon="120.644312"/><trkpt lat="24.1693353" lon="120.6441564"/><trkpt lat="24.169208" lon="120.644092"/><trkpt lat="24.1690807" lon="120.6441564"/><trkpt lat="24.169028" lon="120.644312"/><trkpt lat="24.1690807" lon="120.6444676"/><trkpt lat="24.169208" lon="120.644532"/></trkseg></trk></gpx>