<?xml version="1.0" encoding="UTF-8"?><gpx version="1.1" creator="Arbor3D SIMULATED" xmlns="http://www.topografix.com/GPX/1/1"><metadata><name>SIMULATED 臺中中央公園</name><desc>合成示範軌跡，非現場 GPS；不可作為導航或現勘證據。</desc></metadata><trk><name>SIMULATED</name><trkseg><trkpt lat="24.186933" lon="120.6544822"/><trkpt lat="24.1868537" lon="120.6544993"/><trkpt lat="24.1866537" lon="120.6545424"/><trkpt lat="24.1862421" lon="120.6546645"/><trkpt lat="24.1859741" lon="120.6547671"/><trkpt lat="24.1856287" lon="120.6549317"/></trkseg></trk></gpx>