<?xml version="1.0" encoding="UTF-8"?><gpx version="1.1" creator="Arbor3D SIMULATED" xmlns="http://www.topografix.com/GPX/1/1"><metadata><name>SIMULATED 廍子公園</name><desc>合成示範軌跡，非現場 GPS；不可作為導航或現勘證據。</desc></metadata><trk><name>SIMULATED</name><trkseg><trkpt lat="24.1681481" lon="120.7317008"/><trkpt lat="24.1682709" lon="120.7318354"/><trkpt lat="24.168355" lon="120.7320227"/><trkpt lat="24.1683982" lon="120.7321294"/><trkpt lat="24.1684437" lon="120.732274"/><trkpt lat="24.1684574" lon="120.7324086"/><trkpt lat="24.1683118" lon="120.7325731"/><trkpt lat="24.1680799" lon="120.732593"/></trkseg></trk></gpx>