<?xml version="1.0" encoding="UTF-8"?><gpx version="1.1" creator="Arbor3D SIMULATED" xmlns="http://www.topografix.com/GPX/1/1"><metadata><name>SIMULATED 豐樂雕塑公園</name><desc>合成示範軌跡，非現場 GPS；不可作為導航或現勘證據。</desc></metadata><trk><name>SIMULATED</name><trkseg><trkpt lat="24.1305862" lon="120.6433833"/><trkpt lat="24.1303513" lon="120.6432904"/><trkpt lat="24.1301962" lon="120.6431591"/><trkpt lat="24.1300959" lon="120.6429857"/><trkpt lat="24.1300791" lon="120.6427296"/><trkpt lat="24.1301231" lon="120.6426061"/><trkpt lat="24.1301487" lon="120.6425588"/><trkpt lat="24.1304843" lon="120.6423948"/></trkseg></trk></gpx>