<?xml version="1.0" encoding="UTF-8"?><gpx version="1.1" creator="Arbor3D SIMULATED" xmlns="http://www.topografix.com/GPX/1/1"><metadata><name>SIMULATED 中清公園</name><desc>合成示範軌跡，非現場 GPS；不可作為導航或現勘證據。</desc></metadata><trk><name>SIMULATED</name><trkseg><trkpt lat="24.171871" lon="120.6694"/><trkpt lat="24.1719983" lon="120.6693356"/><trkpt lat="24.172051" lon="120.66918"/><trkpt lat="24.1719983" lon="120.6690244"/><trkpt lat="24.171871" lon="120.66896"/><trkpt lat="24.1717437" lon="120.6690244"/><trkpt lat="24.171691" lon="120.66918"/><trkpt lat="24.1717437" lon="120.6693356"/><trkpt lat="24.171871" lon="120.6694"/></trkseg></trk></gpx>