<?xml version="1.0" encoding="UTF-8"?><gpx version="1.1" creator="Arbor3D SIMULATED" xmlns="http://www.topografix.com/GPX/1/1"><metadata><name>SIMULATED 上安公園</name><desc>合成示範軌跡，非現場 GPS；不可作為導航或現勘證據。</desc></metadata><trk><name>SIMULATED</name><trkseg><trkpt lat="24.170438" lon="120.640793"/><trkpt lat="24.1705653" lon="120.6407286"/><trkpt lat="24.170618" lon="120.640573"/><trkpt lat="24.1705653" lon="120.6404174"/><trkpt lat="24.170438" lon="120.640353"/><trkpt lat="24.1703107" lon="120.6404174"/><trkpt lat="24.170258" lon="120.640573"/><trkpt lat="24.1703107" lon="120.6407286"/><trkpt lat="24.170438" lon="120.640793"/></trkseg></trk></gpx>