<?xml version="1.0" encoding="UTF-8"?><gpx version="1.1" creator="Arbor3D SIMULATED" xmlns="http://www.topografix.com/GPX/1/1"><metadata><name>SIMULATED 文心森林公園</name><desc>合成示範軌跡，非現場 GPS；不可作為導航或現勘證據。</desc></metadata><trk><name>SIMULATED</name><trkseg><trkpt lat="24.1465729" lon="120.6457711"/><trkpt lat="24.1465412" lon="120.645595"/><trkpt lat="24.146419" lon="120.6453603"/><trkpt lat="24.1463361" lon="120.6452236"/><trkpt lat="24.1461508" lon="120.6450295"/><trkpt lat="24.1461211" lon="120.6449238"/><trkpt lat="24.1461137" lon="120.6446961"/><trkpt lat="24.1461341" lon="120.6445762"/></trkseg></trk></gpx>