<?xml version="1.0" encoding="UTF-8"?><gpx version="1.1" creator="Arbor3D SIMULATED" xmlns="http://www.topografix.com/GPX/1/1"><metadata><name>SIMULATED 臺中都會公園</name><desc>合成示範軌跡，非現場 GPS；不可作為導航或現勘證據。</desc></metadata><trk><name>SIMULATED</name><trkseg><trkpt lat="24.2083553" lon="120.5978125"/><trkpt lat="24.2082881" lon="120.5979861"/><trkpt lat="24.2082187" lon="120.5980441"/><trkpt lat="24.2080482" lon="120.5980693"/><trkpt lat="24.2079673" lon="120.5980334"/><trkpt lat="24.2078606" lon="120.5978855"/><trkpt lat="24.2078477" lon="120.59781"/><trkpt lat="24.2078791" lon="120.5976619"/></trkseg></trk></gpx>