<?xml version="1.0" encoding="UTF-8"?><gpx version="1.1" creator="Arbor3D SIMULATED" xmlns="http://www.topografix.com/GPX/1/1"><metadata><name>SIMULATED 上石公園</name><desc>合成示範軌跡，非現場 GPS；不可作為導航或現勘證據。</desc></metadata><trk><name>SIMULATED</name><trkseg><trkpt lat="24.172789" lon="120.644953"/><trkpt lat="24.1729163" lon="120.6448886"/><trkpt lat="24.172969" lon="120.644733"/><trkpt lat="24.1729163" lon="120.6445774"/><trkpt lat="24.172789" lon="120.644513"/><trkpt lat="24.1726617" lon="120.6445774"/><trkpt lat="24.172609" lon="120.644733"/><trkpt lat="24.1726617" lon="120.6448886"/><trkpt lat="24.172789" lon="120.644953"/></trkseg></trk></gpx>