<?xml version="1.0" encoding="UTF-8"?><gpx version="1.1" creator="Arbor3D SIMULATED" xmlns="http://www.topografix.com/GPX/1/1"><metadata><name>SIMULATED 秋紅谷廣場</name><desc>合成示範軌跡，非現場 GPS；不可作為導航或現勘證據。</desc></metadata><trk><name>SIMULATED</name><trkseg><trkpt lat="24.1679681" lon="120.6391904"/><trkpt lat="24.1680653" lon="120.639238"/><trkpt lat="24.1684602" lon="120.6391473"/><trkpt lat="24.1685202" lon="120.6391654"/><trkpt lat="24.1683113" lon="120.6392992"/><trkpt lat="24.1681728" lon="120.6393558"/><trkpt lat="24.1681893" lon="120.6395235"/><trkpt lat="24.1683361" lon="120.6395485"/></trkseg></trk></gpx>