<?xml version="1.0" encoding="UTF-8"?><gpx version="1.1" creator="Arbor3D SIMULATED" xmlns="http://www.topografix.com/GPX/1/1"><metadata><name>SIMULATED 臺中公園</name><desc>合成示範軌跡，非現場 GPS；不可作為導航或現勘證據。</desc></metadata><trk><name>SIMULATED</name><trkseg><trkpt lat="24.1429215" lon="120.6844633"/><trkpt lat="24.1429428" lon="120.6846849"/><trkpt lat="24.1434005" lon="120.6849347"/><trkpt lat="24.1435806" lon="120.68498"/><trkpt lat="24.1438965" lon="120.6850446"/><trkpt lat="24.144047" lon="120.6850353"/></trkseg></trk></gpx>