<?xml version="1.0" encoding="UTF-8"?><gpx version="1.1" creator="Arbor3D SIMULATED" xmlns="http://www.topografix.com/GPX/1/1"><metadata><name>SIMULATED 黎新公園</name><desc>合成示範軌跡，非現場 GPS；不可作為導航或現勘證據。</desc></metadata><trk><name>SIMULATED</name><trkseg><trkpt lat="24.153634" lon="120.6253431"/><trkpt lat="24.153607" lon="120.6253733"/><trkpt lat="24.1535875" lon="120.6254102"/><trkpt lat="24.1535532" lon="120.6254209"/><trkpt lat="24.1535189" lon="120.6254048"/><trkpt lat="24.1528067" lon="120.6248872"/></trkseg></trk></gpx>