<?xml version="1.0" encoding="UTF-8"?><gpx version="1.1" creator="Arbor3D SIMULATED" xmlns="http://www.topografix.com/GPX/1/1"><metadata><name>SIMULATED 世貿公園</name><desc>合成示範軌跡，非現場 GPS；不可作為導航或現勘證據。</desc></metadata><trk><name>SIMULATED</name><trkseg><trkpt lat="24.177786" lon="120.616781"/><trkpt lat="24.1779133" lon="120.6167166"/><trkpt lat="24.177966" lon="120.616561"/><trkpt lat="24.1779133" lon="120.6164054"/><trkpt lat="24.177786" lon="120.616341"/><trkpt lat="24.1776587" lon="120.6164054"/><trkpt lat="24.177606" lon="120.616561"/><trkpt lat="24.1776587" lon="120.6167166"/><trkpt lat="24.177786" lon="120.616781"/></trkseg></trk></gpx>