<?xml version="1.0" encoding="UTF-8"?><gpx version="1.1" creator="Arbor3D SIMULATED" xmlns="http://www.topografix.com/GPX/1/1"><metadata><name>SIMULATED 世斌公園</name><desc>合成示範軌跡，非現場 GPS；不可作為導航或現勘證據。</desc></metadata><trk><name>SIMULATED</name><trkseg><trkpt lat="24.182274" lon="120.620195"/><trkpt lat="24.1824013" lon="120.6201306"/><trkpt lat="24.182454" lon="120.619975"/><trkpt lat="24.1824013" lon="120.6198194"/><trkpt lat="24.182274" lon="120.619755"/><trkpt lat="24.1821467" lon="120.6198194"/><trkpt lat="24.182094" lon="120.619975"/><trkpt lat="24.1821467" lon="120.6201306"/><trkpt lat="24.182274" lon="120.620195"/></trkseg></trk></gpx>