<?xml version="1.0" encoding="UTF-8"?><gpx version="1.1" creator="Arbor3D SIMULATED" xmlns="http://www.topografix.com/GPX/1/1"><metadata><name>SIMULATED 望高寮夜景公園</name><desc>合成示範軌跡，非現場 GPS；不可作為導航或現勘證據。</desc></metadata><trk><name>SIMULATED</name><trkseg><trkpt lat="24.1436247" lon="120.5822656"/><trkpt lat="24.1436792" lon="120.5821946"/><trkpt lat="24.1438097" lon="120.5821159"/><trkpt lat="24.143888" lon="120.5821028"/><trkpt lat="24.1439619" lon="120.5821027"/><trkpt lat="24.1440149" lon="120.5821091"/><trkpt lat="24.1441533" lon="120.5822011"/><trkpt lat="24.1442092" lon="120.5822963"/></trkseg></trk></gpx>