<?xml version="1.0" encoding="UTF-8"?><gpx version="1.1" creator="Arbor3D SIMULATED" xmlns="http://www.topografix.com/GPX/1/1"><metadata><name>SIMULATED 國立自然科學博物館</name><desc>合成示範軌跡，非現場 GPS；不可作為導航或現勘證據。</desc></metadata><trk><name>SIMULATED</name><trkseg><trkpt lat="24.1579502" lon="120.6665146"/><trkpt lat="24.157774" lon="120.6665884"/><trkpt lat="24.157812" lon="120.66676"/><trkpt lat="24.1578102" lon="120.6667869"/><trkpt lat="24.1578022" lon="120.6669089"/><trkpt lat="24.1578499" lon="120.66698"/><trkpt lat="24.1580971" lon="120.6669116"/><trkpt lat="24.1578941" lon="120.6670459"/></trkseg></trk></gpx>